EUTELSAT 7A             
1 28187U 04008A   25337.40285544  .00000119  00000+0  00000+0 0  9999
2 28187   5.3330  74.3523 0001322 200.7564 163.2162  1.00268069 79399
EUTELSAT 174A           
1 28924U 05052A   25337.49558478  .00000026  00000+0  00000+0 0  9993
2 28924   3.7230  78.9577 0006594 172.8670 173.1492  1.00270871 50367
EUTELSAT HOTBIRD 13B    
1 29270U 06032A   25337.43691566  .00000174  00000+0  00000+0 0  9991
2 29270   1.1547  84.4427 0003741 164.3450  14.1127  1.00271469 45349
EUTELSAT HOTBIRD 13C    
1 33459U 08065A   25337.42252889 -.00000254  00000+0  00000+0 0  9993
2 33459   2.4457  81.5181 0001266 189.3676 273.7520  1.00048913 45389
EUTELSAT 36B            
1 36101U 09065A   25337.44046899  .00000131  00000+0  00000+0 0  9998
2 36101   0.0398 337.6888 0006465 274.1546  29.7523  1.00269255 58748
EUTELSAT KA-SAT 9A      
1 37258U 10069A   25337.07551067  .00000081  00000+0  00000+0 0  9999
2 37258   0.0516 331.8403 0001123 221.7679 274.7556  1.00272059 42044
EUTELSAT 7 WEST A       
1 37816U 11051A   25337.42894227 -.00000042  00000+0  00000+0 0  9996
2 37816   0.0641   6.1616 0006022 220.1004 353.3740  1.00271420 51915
EUTELSAT 16A            
1 37836U 11057A   25337.29092338  .00000123  00000+0  00000+0 0  9991
2 37836   0.0591 347.1689 0006049 271.8127 294.1445  1.00273705  5367
